LAOSAT 1                
1 41034U 15067A   26202.85565105 -.00000340  00000+0  00000+0 0  9994
2 41034   0.0380 237.5558 0002802 190.1815 308.4194  1.00273095 39207
TELSTAR 12V             
1 41036U 15068A   26203.11232867 -.00000116  00000+0  00000+0 0  9994
2 41036   0.0223 290.4792 0002401 189.7780 205.0367  1.00273558 38974
ELEKTRO-L 2             
1 41105U 15074A   26202.96987718 -.00000120  00000+0  00000+0 0  9997
2 41105   6.7794  70.0943 0000713 229.6444 334.6532  1.00272527 38857
COSMOS 2513             
1 41121U 15075A   26203.13104876 -.00000135  00000+0  00000+0 0  9998
2 41121   0.0578 104.8586 0002606 343.9450 338.5084  1.00271498 38896
EXPRESS-AMU1            
1 41191U 15082A   26203.26504671  .00000159  00000+0  00000+0 0  9999
2 41191   0.0185  61.0659 0002472  60.1651 310.2770  1.00270240 38617
GAOFEN-4                
1 41194U 15083A   26202.59970686 -.00000333  00000+0  00000+0 0  9996
2 41194   0.4439  83.8614 0004162 121.1097  55.9718  1.00270335 38877
BELINTERSAT-1           
1 41238U 16001A   26203.26799339  .00000110  00000+0  00000+0 0  9997
2 41238   0.0346 235.6594 0001860 194.8785  17.4726  1.00269430 38580
IRNSS-1E                
1 41241U 16003A   26202.03020233 -.00000317  00000+0  00000+0 0  9997
2 41241  33.3051  59.2585 0019282 176.3074 185.9195  1.00275296 38420
EUTELSAT 9B             
1 41310U 16005A   26203.19280741  .00000065  00000+0  00000+0 0  9995
2 41310   0.0172  41.1526 0001361  86.6421 250.5668  1.00276294 38462
SES-9                   
1 41380U 16013A   26203.27934677 -.00000342  00000+0  00000+0 0  9993
2 41380   0.0193 324.3001 0002395 139.9617  44.6329  1.00271370 37794
EUTELSAT 65 WEST A      
1 41382U 16014A   26203.24493994 -.00000273  00000+0  00000+0 0  9998
2 41382   0.0837 300.5544 0002383 174.5279 207.9046  1.00272150 37871
IRNSS-1F                
1 41384U 16015A   26203.26418003  .00000156  00000+0  00000+0 0  9990
2 41384   5.4342  95.9738 0017795 179.6995 151.8600  1.00270012 38012
BEIDOU-2 IGSO-6         
1 41434U 16021A   26177.11016981 -.00000145  00000+0  00000+0 0  9995
2 41434  60.2385  37.9495 0057558 231.0163 137.2672  1.00258926 37578
IRNSS-1G                
1 41469U 16027A   26203.04350291 -.00000336  00000+0  00000+0 0  9998
2 41469   5.2796  96.6684 0005812  13.1926 335.2020  1.00266172 37529
JCSAT-2B                
1 41471U 16028A   26202.86041774 -.00000163  00000+0  00000+0 0  9992
2 41471   0.0173  64.7295 0000951  29.2479 309.3808  1.00270620 37471
THAICOM 8               
1 41552U 16031A   26202.84576120 -.00000119  00000+0  00000+0 0  9993
2 41552   0.0628  39.2117 0003083  38.6076 244.7413  1.00272089 37062
INTELSAT 31 (IS-31)     
1 41581U 16035A   26203.24072392 -.00000148  00000+0  00000+0 0  9998
2 41581   0.0144 289.7389 0000937  23.5579 338.3016  1.00271011 37036
BEIDOU-2 G7             
1 41586U 16037A   26202.99466396 -.00000352  00000+0  00000+0 0  9994
2 41586   1.8045  69.5594 0006145   1.5255 337.2936  1.00270489  7232
ABS-2A (MONGOLSAT-1)    
1 41588U 16038A   26203.14350167  .00000000  00000+0  00000+0 0  9992
2 41588   0.0179  53.4348 0001905  25.2844 347.5548  1.00271830 37055
EUTELSAT 117 WEST B     
1 41589U 16038B   26203.25183655 -.00000009  00000+0  00000+0 0  9991
2 41589   0.0034 124.9747 0000214  54.9971  93.6894  1.00272197 37011
BRISAT                  
1 41591U 16039A   26202.79627987 -.00000194  00000+0  00000+0 0  9999
2 41591   0.0126  33.9778 0002119  83.5285 259.1920  1.00270986 36956
ECHOSTAR 18             
1 41592U 16039B   26203.24571994 -.00000279  00000+0  00000+0 0  9991
2 41592   0.0187  66.5369 0001667  53.4070 207.1441  1.00273331 36977
MUOS-5                  
1 41622U 16041A   26203.24627885 -.00000147  00000+0  00000+0 0  9993
2 41622   2.1299 302.3622 0199964 260.4946  80.7016  1.00273548 37436
TIANTONG-1 1            
1 41725U 16048A   26203.13503545 -.00000317  00000+0  00000+0 0  9997
2 41725   3.9155  43.6783 0004977  58.1485 348.0644  1.00272448 36627
JCSAT-16                
1 41729U 16050A   26202.85868440 -.00000249  00000+0  00000+0 0  9994
2 41729   0.0187  62.9448 0000939  42.2641 287.4734  1.00270177 36418
USA 270                 
1 41744U 16052A   26201.42942394 -.00000355  00000+0  00000+0 0  9994
2 41744   4.2794  76.7594 0009649 103.0391  39.0344  1.00264644 28461
USA 271                 
1 41745U 16052B   26195.12317037 -.00000300  00000+0  00000+0 0  9994
2 41745   4.2370  76.9135 0011085 165.9764 191.3847  1.00268559 28181
INTELSAT 36 (IS-36)     
1 41747U 16053A   26203.12888208 -.00000021  00000+0  00000+0 0  9990
2 41747   0.0104  33.5871 0002393 316.6819  64.4989  1.00272116 36300
INSAT-3DR               
1 41752U 16054A   26202.84480786 -.00000074  00000+0  00000+0 0  9992
2 41752   0.0861  89.0733 0010297 180.3786  48.2603  1.00271632 36169
GSAT-18                 
1 41793U 16060A   26203.13000876 -.00000074  00000+0  00000+0 0  9995
2 41793   0.0518  91.5625 0005436 350.0869 338.9997  1.00272302 35875
SKY MUSTER 2 (NBN1B)    
1 41794U 16060B   26202.85885773  .00000000  00000+0  00000+0 0  9999
2 41794   0.0168  50.4598 0001806  67.5929 275.5611  1.00270650 35866
HIMAWARI-9              
1 41836U 16064A   26203.28576014  .00000000  00000+0  00000+0 0  9993
2 41836   0.0127  42.8829 0002551 136.2420   4.5335  1.00270556 35563
