OBJECT_NAME,OBJECT_ID,EPOCH,MEAN_MOTION,ECCENTRICITY,INCLINATION,RA_OF_ASC_NODE,ARG_OF_PERICENTER,MEAN_ANOMALY,EPHEMERIS_TYPE,CLASSIFICATION_TYPE,NORAD_CAT_ID,ELEMENT_SET_NO,REV_AT_EPOCH,BSTAR,MEAN_MOTION_DOT,MEAN_MOTION_DDOT
LAOSAT 1,2015-067A,2026-07-21T20:32:08.250720,1.00273095,.00028024,0.0380,237.5558,190.1815,308.4194,0,U,41034,999,3920,0,-.34E-5,0
TELSTAR 12V,2015-068A,2026-07-22T02:41:45.197088,1.00273558,.0002401,0.0223,290.4792,189.7780,205.0367,0,U,41036,999,3897,0,-.116E-5,0
ELEKTRO-L 2,2015-074A,2026-07-21T23:16:37.388352,1.00272527,.0000713,6.7794,70.0943,229.6444,334.6532,0,U,41105,999,3885,0,-.12E-5,0
COSMOS 2513,2015-075A,2026-07-22T03:08:42.612864,1.00271498,.00026064,0.0578,104.8586,343.9450,338.5084,0,U,41121,999,3889,0,-.135E-5,0
EXPRESS-AMU1,2015-082A,2026-07-22T06:21:40.035744,1.00270240,.00024729,0.0185,61.0659,60.1651,310.2770,0,U,41191,999,3861,0,.159E-5,0
GAOFEN-4,2015-083A,2026-07-21T14:23:34.672704,1.00270335,.00041624,0.4439,83.8614,121.1097,55.9718,0,U,41194,999,3887,0,-.333E-5,0
BELINTERSAT-1,2016-001A,2026-07-22T06:25:54.628896,1.00269430,.000186,0.0346,235.6594,194.8785,17.4726,0,U,41238,999,3858,0,.11E-5,0
IRNSS-1E,2016-003A,2026-07-21T00:43:29.481312,1.00275296,.0019282,33.3051,59.2585,176.3074,185.9195,0,U,41241,999,3842,0,-.317E-5,0
EUTELSAT 9B,2016-005A,2026-07-22T04:37:38.560224,1.00276294,.00013614,0.0172,41.1526,86.6421,250.5668,0,U,41310,999,3846,0,.65E-6,0
SES-9,2016-013A,2026-07-22T06:42:15.560928,1.00271370,.00023957,0.0193,324.3001,139.9617,44.6329,0,U,41380,999,3779,0,-.342E-5,0
EUTELSAT 65 WEST A,2016-014A,2026-07-22T05:52:42.810816,1.00272150,.00023838,0.0837,300.5544,174.5279,207.9046,0,U,41382,999,3787,0,-.273E-5,0
IRNSS-1F,2016-015A,2026-07-22T06:20:25.154592,1.00270012,.00177952,5.4342,95.9738,179.6995,151.8600,0,U,41384,999,3801,0,.156E-5,0
BEIDOU-2 IGSO-6,2016-021A,2026-06-26T02:38:38.671584,1.00258926,.0057558,60.2385,37.9495,231.0163,137.2672,0,U,41434,999,3757,0,-.145E-5,0
IRNSS-1G,2016-027A,2026-07-22T01:02:38.651424,1.00266172,.00058123,5.2796,96.6684,13.1926,335.2020,0,U,41469,999,3752,0,-.336E-5,0
JCSAT-2B,2016-028A,2026-07-21T20:39:00.092736,1.00270620,.00009511,0.0173,64.7295,29.2479,309.3808,0,U,41471,999,3747,0,-.163E-5,0
THAICOM 8,2016-031A,2026-07-21T20:17:53.767680,1.00272089,.00030835,0.0628,39.2117,38.6076,244.7413,0,U,41552,999,3706,0,-.119E-5,0
INTELSAT 31 (IS-31),2016-035A,2026-07-22T05:46:38.546688,1.00271011,.0000937,0.0144,289.7389,23.5579,338.3016,0,U,41581,999,3703,0,-.148E-5,0
BEIDOU-2 G7,2016-037A,2026-07-21T23:52:18.966144,1.00270489,.00061455,1.8045,69.5594,1.5255,337.2936,0,U,41586,999,723,0,-.352E-5,0
ABS-2A (MONGOLSAT-1),2016-038A,2026-07-22T03:26:38.544288,1.00271830,.00019057,0.0179,53.4348,25.2844,347.5548,0,U,41588,999,3705,0,0,0
EUTELSAT 117 WEST B,2016-038B,2026-07-22T06:02:38.677920,1.00272197,.00002149,0.0034,124.9747,54.9971,93.6894,0,U,41589,999,3701,0,-.9E-7,0
BRISAT,2016-039A,2026-07-21T19:06:38.580768,1.00270986,.00021199,0.0126,33.9778,83.5285,259.1920,0,U,41591,999,3695,0,-.194E-5,0
ECHOSTAR 18,2016-039B,2026-07-22T05:53:50.202816,1.00273331,.0001667,0.0187,66.5369,53.4070,207.1441,0,U,41592,999,3697,0,-.279E-5,0
MUOS-5,2016-041A,2026-07-22T05:54:38.492640,1.00273548,.01999641,2.1299,302.3622,260.4946,80.7016,0,U,41622,999,3743,0,-.147E-5,0
TIANTONG-1 1,2016-048A,2026-07-22T03:14:27.062880,1.00272448,.00049773,3.9155,43.6783,58.1485,348.0644,0,U,41725,999,3662,0,-.317E-5,0
JCSAT-16,2016-050A,2026-07-21T20:36:30.332160,1.00270177,.00009398,0.0187,62.9448,42.2641,287.4734,0,U,41729,999,3641,0,-.249E-5,0
USA 270,2016-052A,2026-07-20T10:18:22.228416,1.00264644,.0009649,4.2794,76.7594,103.0391,39.0344,0,U,41744,999,2846,0,-.355E-5,0
USA 271,2016-052B,2026-07-14T02:57:21.919968,1.00268559,.0011085,4.2370,76.9135,165.9764,191.3847,0,U,41745,999,2818,0,-.3E-5,0
INTELSAT 36 (IS-36),2016-053A,2026-07-22T03:05:35.411712,1.00272116,.00023935,0.0104,33.5871,316.6819,64.4989,0,U,41747,999,3630,0,-.21E-6,0
INSAT-3DR,2016-054A,2026-07-21T20:16:31.399104,1.00271632,.00102979,0.0861,89.0733,180.3786,48.2603,0,U,41752,999,3616,0,-.74E-6,0
GSAT-18,2016-060A,2026-07-22T03:07:12.756864,1.00272302,.00054361,0.0518,91.5625,350.0869,338.9997,0,U,41793,999,3587,0,-.74E-6,0
SKY MUSTER 2 (NBN1B),2016-060B,2026-07-21T20:36:45.307872,1.00270650,.00018069,0.0168,50.4598,67.5929,275.5611,0,U,41794,999,3586,0,0,0
HIMAWARI-9,2016-064A,2026-07-22T06:51:29.676096,1.00270556,.00025515,0.0127,42.8829,136.2420,4.5335,0,U,41836,999,3556,0,0,0
